FENGYUN 1C DEB          
1 31618U 99025BZY 17345.00707612  .00000059  00000-0  47752-4 0  9990
2 31618  99.3930 262.5177 0164947 258.8481  99.4108 14.16928802547076
